# From MPC106342
C/1995 O1 (Hale-Bopp),e,88.9851,283.3716,130.6053,180.0591,0.0004079,0.99493452,0.0000,03/29.6820/1997,2000,g -2.0,4.0
# From NK 1615
P/1996 R2 (Lagerkvist),e,2.6003,40.0408,333.2952,3.774776,0.1343901,0.31390271,66.4525,06/20.0/2020,2000,g 11.5,4.0
# From MPC 30063
P/1997 B1 (Kobayashi),e,12.3400,328.8894,183.3822,8.562368,0.0393381,0.76005464,334.5547,06/20.0/2020,2000,g 15.0,2.0
# From MPC 75703
P/1998 VS24 (LINEAR),e,5.0245,159.0301,244.7202,4.530493,0.1022082,0.24177957,90.3522,06/20.0/2020,2000,g 13.0,2.0
# From NK 731
P/1999 RO28 (LONEOS),e,7.5661,137.8824,231.2742,3.426693,0.1553787,0.67194687,55.9292,06/20.0/2020,2000,g 20.0,2.0
# From MPC 75704
P/1999 XN120 (Catalina),e,5.0296,285.2965,161.9426,4.179088,0.1153671,0.21046197,127.4545,06/20.0/2020,2000,g 13.5,2.0
# From NK 744
P/2000 R2 (LINEAR),e,11.6836,160.3005,176.4938,3.465386,0.1527835,0.53151465,56.3223,06/20.0/2020,2000,g 18.0,4.0
# From MPC 43019
P/2001 H5 (NEAT),e,8.3681,328.6872,224.8761,6.098280,0.0654475,0.59891284,111.5773,06/20.0/2020,2000,g 12.0,4.0
# From MPC 75704
P/2001 Q6 (NEAT),e,56.8957,22.1063,42.9600,7.948578,0.0439815,0.82269771,300.6527,06/20.0/2020,2000,g 13.5,4.0
# From MPC 47727
P/2002 EJ57 (LINEAR),e,4.9757,330.3425,167.3274,6.473991,0.0598337,0.59315694,43.8115,06/20.0/2020,2000,g 12.5,4.0
# From MPC109588
P/2002 T5 (LINEAR),e,30.8531,123.0883,326.7928,7.002218,0.0531925,0.43767545,331.0707,06/20.0/2020,2000,g  8.0,4.0
# From MPC109588
P/2002 T6 (NEAT-LINEAR),e,10.8336,206.6009,219.4990,7.664112,0.0464527,0.55965410,290.5246,06/20.0/2020,2000,g 10.5,4.0
# From MPC 75007
C/2002 VQ94 (LINEAR),e,70.5338,34.9804,100.1944,186.6773,0.0003864,0.96338027,2.0314,06/20.0/2020,2000,g  9.5,2.0
# From MPC 50354
P/2003 F2 (NEAT),e,11.6055,359.0884,191.8567,6.485663,0.0596723,0.54202813,13.1818,06/20.0/2020,2000,g 16.5,2.0
# From MPC 50139
P/2003 QX29 (NEAT),e,11.3899,264.6018,37.3369,8.036347,0.0432629,0.47289792,279.0262,06/20.0/2020,2000,g  8.5,4.0
# From MPC105235
P/2003 T12 (SOHO),e,11.0160,174.5747,219.7717,2.586142,0.2369875,0.76960966,10.4614,06/20.0/2020,2000,g 17.0,4.0
# From MPC 82312
P/2004 A1 (LONEOS),e,10.5517,124.8489,21.5066,7.952109,0.0439522,0.30950192,254.1362,06/20.0/2020,2000,g  6.5,4.0
# From MPC 54558
P/2004 DO29 (Spacewatch-LINEAR),e,14.5313,147.3876,40.7584,7.280759,0.0501694,0.44152590,287.4754,06/20.0/2020,2000,g 13.5,2.0
# From MPC 54823
P/2004 FY140 (LINEAR),e,2.1348,326.7627,242.4847,4.900473,0.0908546,0.16892333,162.7064,06/20.0/2020,2000,g 12.5,2.0
# From MPC 53304
P/2004 R3 (LINEAR-NEAT),e,12.8165,305.4990,39.3825,4.780163,0.0943061,0.26076954,315.8217,06/20.0/2020,2000,g 14.5,4.0
# From MPC 55521
P/2004 V3 (Siding Spring),e,50.4250,356.1102,322.2628,7.146361,0.0515913,0.44627294,295.5213,06/20.0/2020,2000,g 11.5,4.0
# From MPC 75705
P/2004 V5 (LINEAR-Hill),e,19.3477,47.7559,87.8505,7.973032,0.0437793,0.44358196,245.4129,06/20.0/2020,2000,g  8.0,4.0
# From MPC 54164
P/2005 E1 (Tubbiolo),e,4.2637,335.5788,194.1737,7.035167,0.0528193,0.37528840,296.7647,06/20.0/2020,2000,g 10.0,4.0
# From MPC 54823
P/2005 GF8 (LONEOS),e,1.1935,314.8376,285.3398,5.875082,0.0692123,0.51842661,18.2520,06/20.0/2020,2000,g 11.5,4.0
# From MPC 79019
P/2005 J1 (McNaught),e,31.7692,268.7974,338.9481,3.569262,0.1461626,0.57005429,90.0640,06/20.0/2020,2000,g 16.5,4.0
# From MPC 74246
P/2005 L1 (McNaught),e,7.7385,138.2469,149.6537,3.975749,0.1243299,0.20933203,297.7824,06/20.0/2020,2000,g  9.5,4.0
# From MPC 75706
P/2005 S2 (Skiff),e,3.1356,161.1870,229.1795,8.019050,0.0434030,0.19648290,223.8774,06/20.0/2020,2000,g  7.5,4.0
# From MPC 75706
P/2005 SB216 (LONEOS),e,24.0648,1.2714,83.4088,7.124977,0.0518238,0.46301381,254.2033,06/20.0/2020,2000,g 12.0,2.0
# From MPC 55717
P/2005 T2 (Christensen),e,8.2927,260.1574,58.8041,3.846610,0.1306432,0.41653619,9.4901,06/20.0/2020,2000,g 14.5,4.0
# From MPC 73461
P/2005 T3 (Read),e,6.2260,27.7702,7.2101,7.573471,0.0472892,0.17358293,253.1368,06/20.0/2020,2000,g  9.0,4.0
# From MPC 73461
P/2005 T4 (SWAN),e,160.1564,25.6033,41.5076,9.360322,0.0344166,0.93006874,185.1411,06/20.0/2020,2000,g 15.0,4.0
# From MPC 75706
P/2005 T5 (Broughton),e,21.3464,57.0129,304.4948,7.293098,0.0500422,0.55170534,268.8650,06/20.0/2020,2000,g 11.0,4.0
# From MPC 56954
P/2005 W3 (Kowalski),e,16.4134,210.1127,200.5937,6.336860,0.0617864,0.54362910,331.7316,06/20.0/2020,2000,g 12.0,4.0
# From MPC 75706
P/2005 XA54 (LONEOS-Hill),e,17.1185,143.6728,15.1471,6.051319,0.0662108,0.71016141,345.2152,06/20.0/2020,2000,g 14.0,4.0
# From MPC 75706
P/2005 Y2 (McNaught),e,19.1075,94.5169,194.1388,6.367903,0.0613351,0.46911492,352.4342,06/20.0/2020,2000,g  9.0,4.0
# From MPC 56954
P/2006 F4 (Spacewatch),e,12.3889,183.9503,31.2440,3.529509,0.1486389,0.33900942,47.8771,06/20.0/2020,2000,g 15.0,4.0
# From MPC 58118
P/2006 H1 (McNaught),e,12.8051,359.8916,309.2801,5.770950,0.0710940,0.58019182,13.8977,06/20.0/2020,2000,g 12.5,4.0
# From MPC 75707
P/2006 HR30 (Siding Spring),e,31.8316,309.8976,117.2983,7.811269,0.0451463,0.84180497,222.8318,06/20.0/2020,2000,g 11.0,4.0
# From MPC 75707
P/2006 S4 (Christensen),e,39.5404,36.1016,305.1584,6.307880,0.0622127,0.50770004,324.2987,06/20.0/2020,2000,g 11.0,4.0
# From MPC 75707
P/2007 A2 (Christensen),e,26.4876,300.9058,186.7905,6.321691,0.0620089,0.55744825,304.6517,06/20.0/2020,2000,g 13.5,4.0
# From MPC 59319
P/2007 B1 (Christensen),e,12.3771,77.6669,46.7682,5.817662,0.0702395,0.58081536,344.5690,06/20.0/2020,2000,g 13.5,4.0
# From MPC 75707
P/2007 C2 (Catalina),e,8.6779,275.7069,179.7574,6.998624,0.0532335,0.46905214,247.7326,06/20.0/2020,2000,g 10.0,4.0
# From MPC 84315
C/2007 D1 (LINEAR),e,41.5008,171.1485,340.1707,1691,0.0000142,0.99477446,0.0000,06/10.9182/2007,2000,g  3.5,4.0
# From MPC 82314
P/2007 K2 (Gibbs),e,7.6406,188.6495,347.4933,7.260305,0.0503816,0.68363304,239.8281,06/20.0/2020,2000,g 14.0,4.0
# From MPC 60925
P/2007 Q2 (Gilmore),e,10.2006,172.1756,162.7813,5.657799,0.0732374,0.67046319,348.2815,06/20.0/2020,2000,g 16.0,4.0
# From MPC 75708
P/2007 R2 (Gibbs),e,1.2165,11.4310,352.3712,3.573750,0.1458874,0.54233976,347.1342,06/20.0/2020,2000,g 17.0,4.0
# From MPC 75708
P/2007 R4 (Garradd),e,20.2330,87.2195,282.7332,5.918560,0.0684510,0.66980816,323.2423,06/20.0/2020,2000,g 14.5,4.0
# From MPC 73462
P/2007 S1 (Zhao),e,5.9627,141.3919,245.8199,3.810827,0.1324876,0.33974748,248.5950,06/20.0/2020,2000,g 13.0,4.0
# From MPC 61994
P/2007 T2 (Kowalski),e,9.7414,3.3779,359.6343,3.047414,0.1852708,0.78507394,129.2112,06/20.0/2020,2000,g 18.5,4.0
# From MPC 75708
P/2007 VQ11 (Catalina),e,12.3201,163.8182,277.6814,5.425080,0.0780000,0.50317412,352.9756,06/20.0/2020,2000,g 12.0,4.0
# From MPC 75708
P/2008 CL94 (Lemmon),e,8.3484,33.3406,80.6486,6.158860,0.0644842,0.12007156,330.3056,06/20.0/2020,2000,g  8.0,4.0
# From MPC 75709
P/2008 L2 (Hill),e,25.8506,218.0038,141.1991,6.028889,0.0665807,0.61282958,289.7268,06/20.0/2020,2000,g 12.5,4.0
# From MPC 64114
P/2008 O3 (Boattini),e,32.2292,47.6097,341.0777,8.225048,0.0417827,0.69468094,184.3700,06/20.0/2020,2000,g 13.0,4.0
# From MPC 75709
P/2008 QP20 (LINEAR-Hill),e,7.5177,322.1155,75.7292,3.548489,0.1474480,0.49286555,277.2746,06/20.0/2020,2000,g 15.5,4.0
# From MPC 66204
P/2008 WZ96 (LINEAR),e,7.1225,56.5963,341.7927,3.491738,0.1510572,0.47124289,294.6821,06/20.0/2020,2000,g 13.5,4.0
# From MPC 75710
P/2008 Y3 (McNaught),e,38.7594,262.7806,238.3218,8.045065,0.0431926,0.44565521,181.0175,06/20.0/2020,2000,g  8.5,4.0
# From MPC 75710
P/2009 B1 (Boattini),e,22.2184,297.0928,128.9180,6.734749,0.0563926,0.63448005,235.6284,06/20.0/2020,2000,g 13.0,4.0
# From MPC 66466
C/2009 G1 (STEREO),e,108.7514,120.4306,175.3569,416.3609,0.0001160,0.99727984,0.0000,04/14.5757/2009,2000,g  9.0,4.0
# From MPC 75710
P/2009 O3 (Hill),e,16.2547,183.7310,154.3594,7.771932,0.0454894,0.68728112,184.2784,06/20.0/2020,2000,g 12.5,4.0
# From MPC 98557
P/2009 Q1 (Hill),e,14.5049,173.9562,157.1142,5.520025,0.0759963,0.49462469,306.5578,06/20.0/2020,2000,g 11.5,4.0
# From MPC112389
P/2009 Q4 (Boattini),e,11.0153,127.4651,320.2276,3.127831,0.1781719,0.58252823,326.1513,06/20.0/2020,2000,g 15.5,4.0
# From MPC 68902
P/2009 Q5 (McNaught),e,40.9623,160.2511,209.0169,7.439941,0.0485680,0.60829666,191.6232,06/20.0/2020,2000,g 10.0,4.0
# From MPC112389
P/2009 T2 (La Sagra),e,27.5301,215.7654,216.4560,7.725415,0.0459009,0.76484421,175.6673,06/20.0/2020,2000,g 14.0,4.0
# From MPC 75711
P/2009 U4 (McNaught),e,10.0818,55.3600,259.8527,5.080668,0.0860643,0.67593872,340.5375,06/20.0/2020,2000,g 14.0,4.0
# From MPC105235
P/2009 WX51 (Catalina),e,9.5957,31.6889,118.0675,3.078765,0.1824481,0.74017258,332.7489,06/20.0/2020,2000,g 19.0,2.0
# From MPC 74247
P/2009 Y2 (Kowalski),e,29.9272,262.0236,172.1977,6.548177,0.0588198,0.63574828,221.1567,06/20.0/2020,2000,g 13.0,4.0
# From MPC 75711
P/2010 A3 (Hill),e,14.8881,64.2390,41.8072,6.074488,0.0658324,0.73297523,246.1891,06/20.0/2020,2000,g 14.0,4.0
# From MPC 72851
P/2010 A5 (LINEAR),e,5.7985,277.6649,307.0890,5.084311,0.0859718,0.66513810,318.3521,06/20.0/2020,2000,g 13.0,4.0
# From MPC105235
P/2010 B2 (WISE),e,8.9305,0.8512,155.9260,3.109839,0.1797203,0.47990489,329.8822,06/20.0/2020,2000,g 17.0,4.0
# From MPC 75008
P/2010 C1 (Scotti),e,9.1284,141.8867,3.8629,7.101958,0.0520759,0.25859438,201.2892,06/20.0/2020,2000,g  9.5,4.0
# From MPC 75008
P/2010 D2 (WISE),e,57.0843,319.8923,120.1377,6.715047,0.0566409,0.45070988,213.7724,06/20.0/2020,2000,g 16.0,4.0
# From MPC 75009
P/2010 E2 (Jarnac),e,15.4152,177.8254,8.3749,8.636777,0.0388308,0.72059069,144.7756,06/20.0/2020,2000,g 14.0,4.0
# From MPC 72851
P/2010 H2 (Vales),e,14.2725,64.2143,128.2857,3.835452,0.1312137,0.19552927,133.0960,06/20.0/2020,2000,g  6.0,4.0
# From MPC 70361
P/2010 H3 (SOHO),e,23.1795,77.2731,25.9732,3.062996,0.1838588,0.98549607,0.0000,02/07.9244/2021,2000,g 20.0,2.0
# From MPC 73463
P/2010 H4 (Scotti),e,2.3195,44.7530,179.5726,6.587590,0.0582927,0.26797419,212.8218,06/20.0/2020,2000,g 10.5,4.0
# From MPC 74637
